OBJECT_NAME,OBJECT_ID,EPOCH,MEAN_MOTION,ECCENTRICITY,INCLINATION,RA_OF_ASC_NODE,ARG_OF_PERICENTER,MEAN_ANOMALY,EPHEMERIS_TYPE,CLASSIFICATION_TYPE,NORAD_CAT_ID,ELEMENT_SET_NO,REV_AT_EPOCH,BSTAR,MEAN_MOTION_DOT,MEAN_MOTION_DDOT
CHUANGXIN 1-02 (CX-1-02),2008-056B,2026-06-12T07:55:27.632352,14.30152286,.00147349,98.6141,189.6453,150.1507,210.0519,0,U,33434,999,91792,.56343806E-4,.102E-5,0
STARS (KUKAI),2009-002G,2026-06-12T03:14:04.669728,14.95715443,.00084684,98.1547,110.2371,174.3573,185.7743,0,U,33498,999,93772,.34866892E-3,.3822E-4,0
KKS-1 (KISEKI),2009-002H,2026-06-12T06:20:16.775520,14.83112324,.00067881,98.1193,85.6283,314.7383,45.3277,0,U,33499,999,93546,.16092614E-3,.1256E-4,0
NOAA 19,2009-005A,2026-06-12T07:22:40.825344,14.13473526,.00144892,98.9520,234.1786,47.6086,312.6310,0,U,33591,999,89379,.36767408E-4,.24E-6,0
UK-DMC 2,2009-041C,2026-06-12T06:39:01.325952,14.76030635,.0001264,97.8825,298.3637,76.2940,283.8410,0,U,35683,999,90584,.13721202E-3,.896E-5,0
METEOR-M 1,2009-049A,2026-06-12T03:41:47.895648,14.23155766,.00018869,98.7384,125.6639,354.9062,5.2096,0,U,35865,999,86853,.41290221E-4,.49E-6,0
OCEANSAT-2,2009-051A,2026-06-12T06:24:31.215744,13.99664794,.00148471,98.2324,150.6092,250.9803,108.9756,0,U,35931,999,87864,.2218144E-4,-.5E-7,0
SWISSCUBE,2009-051B,2026-06-11T05:11:30.524928,14.62470076,.0005629,98.4041,70.0006,224.4191,135.6559,0,U,35932,999,88828,.16844E-3,.804E-5,0
BEESAT-1,2009-051C,2026-06-12T05:59:13.182432,14.61713145,.00039964,98.3970,70.6975,236.3504,123.7316,0,U,35933,999,88846,.16659664E-3,.781E-5,0
ITUPSAT1,2009-051E,2026-06-11T04:59:59.440704,14.60431670,.0006132,98.4055,68.8386,256.4621,103.5895,0,U,35935,999,88786,.13683E-3,.614E-5,0
DMSP 5D-3 F18 (USA 210),2009-057A,2026-06-12T06:16:48.116064,14.14894225,.00098416,98.9036,144.0415,265.1961,94.8089,0,U,35951,999,85889,.15341061E-3,.252E-5,0
PROBA-2,2009-059B,2026-06-12T06:55:37.718400,14.54860455,.00120893,98.2449,346.7094,298.8532,61.1451,0,U,36037,999,88081,.53828608E-4,.186E-5,0
YAOGAN-7,2009-069A,2026-06-12T06:46:15.174912,14.78005257,.00258198,98.0079,49.1793,56.8914,303.4770,0,U,36110,999,88890,.73585398E-4,.481E-5,0
XIWANG-1 (HOPE-1),2009-072B,2026-06-12T05:28:13.977984,13.16440697,.00068047,100.4019,117.1389,244.0198,116.0214,0,U,36122,999,79235,.11636338E-2,.4E-5,0
RADUGA-1M 2,2010-002A,2026-06-12T06:13:19.432416,0.98968750,.00057445,3.6076,78.9174,265.3025,341.6038,0,U,36358,999,4997,0,-.221E-5,0
COSMOS 2463,2010-017A,2026-06-12T07:16:02.161056,13.71665369,.0037124,82.9606,253.2941,142.0162,279.2223,0,U,36519,999,80726,.18823145E-4,.32E-6,0
CARTOSAT-2B,2010-035A,2026-06-12T07:58:14.063808,14.78655025,.00107711,97.9960,213.9128,199.9493,160.1299,0,U,36795,999,85913,.57129261E-4,.366E-5,0
AISSAT 1,2010-035C,2026-06-12T06:21:42.240672,14.97340839,.00106926,98.0929,62.3353,77.3359,282.9057,0,U,36797,999,86348,.25573203E-3,.2908E-4,0
TISAT 1,2010-035E,2026-06-11T19:48:17.496864,15.31505965,.0000614,98.0703,108.8988,171.8876,188.2374,0,U,36799,999,86688,.60400158E-3,.18314E-3,0
YAOGAN-10,2010-038A,2026-06-12T07:28:21.235296,14.85334344,.00016793,97.8983,186.7545,90.0750,38.4995,0,U,36834,999,85648,.20581074E-3,.1716E-4,0
SHIJIAN-6 04B (SJ-6 04B),2010-051B,2026-06-12T06:49:41.948256,14.99302235,.00086615,97.8684,168.6445,330.1868,29.8860,0,U,37180,999,85494,.77591092E-4,.886E-5,0
FENGYUN 3B,2010-059A,2026-06-12T07:07:17.305248,14.14839628,.00216432,98.9626,209.2906,198.0732,294.1941,0,U,37214,999,80673,.52172844E-4,.56E-6,0
COSMO-SKYMED 4,2010-060A,2026-06-12T07:30:38.462688,14.82147357,.00013886,97.8889,346.9836,81.1306,279.0065,0,U,37216,999,84384,-.9841645E-5,-.131E-5,0
O/OREOS (USA 219),2010-062C,2026-06-12T05:46:07.893696,14.93724392,.0012424,71.9710,91.5441,73.8803,286.3735,0,U,37224,999,11590,.22532861E-3,.2327E-4,0
ELEKTRO-L 1 (GOMS 2),2011-001A,2026-06-12T05:50:05.970624,1.00155667,.00040627,9.6742,54.5548,31.1519,152.9457,0,U,37344,999,5643,0,-.44E-6,0
RESOURCESAT-2,2011-015A,2026-06-12T05:34:57.172224,14.21605370,.00101285,98.7644,230.7084,271.4774,88.5243,0,U,37387,999,78547,.42953092E-4,.5E-6,0
YOUTHSAT,2011-015B,2026-06-12T03:55:24.460320,14.25628408,.00145488,98.3681,137.4442,1.9254,9.0798,0,U,37388,999,78692,.89846916E-4,.172E-5,0
APRIZESAT 6,2011-044F,2026-06-12T06:43:45.180192,14.76909083,.0044459,98.2370,73.6798,101.2579,21.3583,0,U,37793,999,79642,.1049866E-3,.694E-5,0
JUGNU,2011-058B,2026-06-12T03:54:33.555168,14.13775454,.0018583,19.9621,338.9523,20.9727,136.2305,0,U,37839,999,75831,.72628816E-4,.406E-5,0
SRMSAT,2011-058D,2026-06-11T12:22:46.149888,14.11574372,.0011909,19.9715,93.7945,141.4141,27.1536,0,U,37841,999,75701,.48954E-4,.355E-5,0
