{"_default": { "31": {"norad_id": "37214", "name": "FENGYUN 3B", "tle1": "1 37214U 10059A   26163.29672807  .00000056  00000-0  52173-4 0  9994", "tle2": "2 37214  98.9626 209.2906 0021643 198.0732 294.1941 14.14839628806733", "object_type": "PAYLOAD", "criticality_score": 9.0, "last_updated": "2026-06-12T14:14:32.686762+00:00", "maneuver_count": 0, "owner": "N/A"}, "32": {"norad_id": "36799", "name": "TISAT 1", "tle1": "1 36799U 10035E   26162.82520251  .00018314  00000-0  60400-3 0  9995", "tle2": "2 36799  98.0703 108.8988 0000614 171.8876 188.2374 15.31505965866883", "object_type": "PAYLOAD", "criticality_score": 9.0, "last_updated": "2026-06-12T14:14:32.686762+00:00", "maneuver_count": 0, "owner": "N/A"}, "33": {"norad_id": "33591", "name": "NOAA 19", "tle1": "1 33591U 09005A   26163.30741696  .00000024  00000-0  36767-4 0  9998", "tle2": "2 33591  98.9520 234.1786 0014489  47.6086 312.6310 14.13473526893792", "object_type": "PAYLOAD", "criticality_score": 9.0, "last_updated": "2026-06-12T14:14:32.686762+00:00", "maneuver_count": 0, "owner": "N/A"}, "61": {"norad_id": "37224", "name": "O/OREOS (USA 219)", "tle1": "1 37224U 10062C   26163.24036914  .00002327  00000-0  22533-3 0  9996", "tle2": "2 37224  71.9710  91.5441 0012424  73.8803 286.3735 14.93724392115905", "object_type": "PAYLOAD", "criticality_score": 9.0, "last_updated": "2026-06-12T14:14:32.686762+00:00", "maneuver_count": 0, "owner": "N/A"}, "62": {"norad_id": "36795", "name": "CARTOSAT 2B", "tle1": "1 36795U 10035A   26163.33210722  .00000366  00000-0  57129-4 0  9990", "tle2": "2 36795  97.9960 213.9128 0010771 199.9493 160.1299 14.78655025859135", "object_type": "PAYLOAD", "criticality_score": 9.0, "last_updated": "2026-06-12T14:14:32.686762+00:00", "maneuver_count": 0, "owner": "N/A"}, "63": {"norad_id": "36122", "name": "XIWANG-1 (HOPE-1)", "tle1": "1 36122U 09072B   26163.22793956  .00000400  00000-0  11636-2 0  9996", "tle2": "2 36122 100.4019 117.1389 0006805 244.0198 116.0214 13.16440697792350", "object_type": "PAYLOAD", "criticality_score": 9.0, "last_updated": "2026-06-12T14:14:32.686762+00:00", "maneuver_count": 0, "owner": "N/A"}, "64": {"norad_id": "35935", "name": "ITUPSAT 1", "tle1": "1 35935U 09051E   26162.20832686  .00000614  00000-0  13683-3 0  9997", "tle2": "2 35935  98.4055  68.8386 0006132 256.4621 103.5895 14.60431670887865", "object_type": "PAYLOAD", "criticality_score": 9.0, "last_updated": "2026-06-12T14:14:32.686762+00:00", "maneuver_count": 0, "owner": "N/A"}, "65": {"norad_id": "35933", "name": "BEESAT", "tle1": "1 35933U 09051C   26163.24945813  .00000781  00000-0  16660-3 0  9990", "tle2": "2 35933  98.3970  70.6975 0003996 236.3504 123.7316 14.61713145888465", "object_type": "PAYLOAD", "criticality_score": 9.0, "last_updated": "2026-06-12T14:14:32.686762+00:00", "maneuver_count": 0, "owner": "N/A"}, "66": {"norad_id": "35932", "name": "SWISSCUBE", "tle1": "1 35932U 09051B   26162.21632552  .00000804  00000-0  16844-3 0  9998", "tle2": "2 35932  98.4041  70.0006 0005629 224.4191 135.6559 14.62470076888283", "object_type": "PAYLOAD", "criticality_score": 9.0, "last_updated": "2026-06-12T14:14:32.686762+00:00", "maneuver_count": 0, "owner": "N/A"}, "67": {"norad_id": "33499", "name": "KKS-1 (KISEKI)", "tle1": "1 33499U 09002H   26163.26408305  .00001256  00000-0  16093-3 0  9991", "tle2": "2 33499  98.1193  85.6283 0006788 314.7383  45.3277 14.83112324935465", "object_type": "PAYLOAD", "criticality_score": 9.0, "last_updated": "2026-06-12T14:14:32.686762+00:00", "maneuver_count": 0, "owner": "N/A"}, "89": {"norad_id": "37841", "name": "SRMSAT", "tle1": "1 37841U 11058D   26162.51581192  .00000355  00000-0  48954-4 0  9994", "tle2": "2 37841  19.9715  93.7945 0011909 141.4141  27.1536 14.11574372757019", "object_type": "PAYLOAD", "criticality_score": 9.0, "last_updated": "2026-06-12T14:14:32.686762+00:00", "maneuver_count": 0, "owner": "N/A"}, "90": {"norad_id": "37839", "name": "JUGNU", "tle1": "1 37839U 11058B   26163.16288837  .00000406  00000-0  72629-4 0  9996", "tle2": "2 37839  19.9621 338.9523 0018583  20.9727 136.2305 14.13775454758310", "object_type": "PAYLOAD", "criticality_score": 9.0, "last_updated": "2026-06-12T14:14:32.686762+00:00", "maneuver_count": 0, "owner": "N/A"}, "122": {"norad_id": "35865", "name": "METEOR-M", "tle1": "1 35865U 09049A   26163.15402657  .00000049  00000-0  41290-4 0  9990", "tle2": "2 35865  98.7384 125.6639 0001887 354.9062   5.2096 14.23155766868535", "object_type": "PAYLOAD", "criticality_score": 9.0, "last_updated": "2026-06-12T14:14:32.686762+00:00", "maneuver_count": 0, "owner": "N/A"}, "123": {"norad_id": "33498", "name": "STARS (KUKAI)", "tle1": "1 33498U 09002G   26163.13477627  .00003822  00000-0  34867-3 0  9999", "tle2": "2 33498  98.1547 110.2371 0008468 174.3573 185.7743 14.95715443937720", "object_type": "PAYLOAD", "criticality_score": 9.0, "last_updated": "2026-06-12T14:14:32.686762+00:00", "maneuver_count": 0, "owner": "N/A"}, "259": {"norad_id": "36037", "name": "PROBA 2", "tle1": "1 36037U 09059B   26163.28863100  .00000186  00000-0  53829-4 0  9994", "tle2": "2 36037  98.2449 346.7094 0012089 298.8532  61.1451 14.54860455880812", "object_type": "PAYLOAD", "criticality_score": 9.0, "last_updated": "2026-06-12T14:14:32.686762+00:00", "maneuver_count": 0, "owner": "N/A"}, "287": {"norad_id": "35683", "name": "DMC 2", "tle1": "1 35683U 09041C   26163.27709868  .00000896  00000-0  13721-3 0  9994", "tle2": "2 35683  97.8825 298.3637 0001264  76.2940 283.8410 14.76030635905842", "object_type": "PAYLOAD", "criticality_score": 9.0, "last_updated": "2026-06-12T14:14:32.686762+00:00", "maneuver_count": 0, "owner": "N/A"}, "299": {"norad_id": "36797", "name": "AISSAT 1", "tle1": "1 36797U 10035C   26163.26507223  .00002908  00000-0  25573-3 0  9990", "tle2": "2 36797  98.0929  62.3353 0010693  77.3359 282.9057 14.97340839863486", "object_type": "PAYLOAD", "criticality_score": 9.0, "last_updated": "2026-06-12T14:14:32.686762+00:00", "maneuver_count": 0, "owner": "N/A"}, "302": {"norad_id": "37388", "name": "YOUTHSAT", "tle1": "1 37388U 11015B   26163.16347755  .00000172  00000-0  89847-4 0  9993", "tle2": "2 37388  98.3681 137.4442 0014549   1.9254   9.0798 14.25628408786920", "object_type": "PAYLOAD", "criticality_score": 9.0, "last_updated": "2026-06-12T14:14:32.686762+00:00", "maneuver_count": 0, "owner": "N/A"}, "343": {"norad_id": "36519", "name": "COSMOS 2463", "tle1": "1 36519U 10017A   26163.30280279  .00000032  00000-0  18823-4 0  9993", "tle2": "2 36519  82.9606 253.2941 0037124 142.0162 279.2223 13.71665369807263", "object_type": "PAYLOAD", "criticality_score": 9.0, "last_updated": "2026-06-12T14:14:32.686762+00:00", "maneuver_count": 0, "owner": "N/A"}, "368": {"norad_id": "37344", "name": "ELEKTRO-L", "tle1": "1 37344U 11001A   26163.24312466 -.00000044  00000-0  00000-0 0  9999", "tle2": "2 37344   9.6742  54.5548 0004063  31.1519 152.9457  1.00155667 56437", "object_type": "PAYLOAD", "criticality_score": 9.0, "last_updated": "2026-06-12T14:14:32.686762+00:00", "maneuver_count": 0, "owner": "N/A"}, "375": {"norad_id": "37793", "name": "APRIZESAT 6", "tle1": "1 37793U 11044F   26163.28038403  .00000694  00000-0  10499-3 0  9990", "tle2": "2 37793  98.2370  73.6798 0044459 101.2579  21.3583 14.76909083796428", "object_type": "PAYLOAD", "criticality_score": 9.0, "last_updated": "2026-06-12T14:14:32.686762+00:00", "maneuver_count": 0, "owner": "N/A"}, "463": {"norad_id": "37387", "name": "RESOURCESAT 2", "tle1": "1 37387U 11015A   26163.23260616  .00000050  00000-0  42953-4 0  9992", "tle2": "2 37387  98.7644 230.7084 0010128 271.4774  88.5243 14.21605370785476", "object_type": "PAYLOAD", "criticality_score": 9.0, "last_updated": "2026-06-12T14:14:32.686762+00:00", "maneuver_count": 0, "owner": "N/A"}, "472": {"norad_id": "35951", "name": "DMSP 5D-3 F18 (USA 210)", "tle1": "1 35951U 09057A   26163.26166801  .00000252  00000-0  15341-3 0  9998", "tle2": "2 35951  98.9036 144.0415 0009842 265.1961  94.8089 14.14894225858898", "object_type": "PAYLOAD", "criticality_score": 9.0, "last_updated": "2026-06-12T14:14:32.686762+00:00", "maneuver_count": 0, "owner": "N/A"}, "473": {"norad_id": "36834", "name": "YAOGAN 10", "tle1": "1 36834U 10038A   26163.31135689  .00001716  00000-0  20581-3 0  9994", "tle2": "2 36834  97.8983 186.7545 0001679  90.0750  38.4995 14.85334344856488", "object_type": "PAYLOAD", "criticality_score": 9.0, "last_updated": "2026-06-12T14:14:32.686762+00:00", "maneuver_count": 0, "owner": "N/A"}, "475": {"norad_id": "35931", "name": "OCEANSAT 2", "tle1": "1 35931U 09051A   26163.26702796 -.00000005  00000-0  22181-4 0  9997", "tle2": "2 35931  98.2324 150.6092 0014847 250.9803 108.9756 13.99664794878642", "object_type": "PAYLOAD", "criticality_score": 9.0, "last_updated": "2026-06-12T14:14:32.686762+00:00", "maneuver_count": 0, "owner": "N/A"}, "498": {"norad_id": "36110", "name": "YAOGAN 7", "tle1": "1 36110U 09069A   26163.28212008  .00000481  00000-0  73585-4 0  9991", "tle2": "2 36110  98.0079  49.1793 0025820  56.8914 303.4770 14.78005257888905", "object_type": "PAYLOAD", "criticality_score": 9.0, "last_updated": "2026-06-12T14:14:32.686762+00:00", "maneuver_count": 0, "owner": "N/A"}, "510": {"norad_id": "37216", "name": "SKYMED 4", "tle1": "1 37216U 10060A   26163.31294517 -.00000131  00000-0 -98416-5 0  9996", "tle2": "2 37216  97.8889 346.9836 0001389  81.1306 279.0065 14.82147357843847", "object_type": "PAYLOAD", "criticality_score": 9.0, "last_updated": "2026-06-12T14:14:32.686762+00:00", "maneuver_count": 0, "owner": "N/A"}, "534": {"norad_id": "33434", "name": "CHUANG XIN 1-02(CX-1-02)", "tle1": "1 33434U 08056B   26163.33018093  .00000102  00000-0  56344-4 0  9990", "tle2": "2 33434  98.6141 189.6453 0014735 150.1507 210.0519 14.30152286917921", "object_type": "PAYLOAD", "criticality_score": 9.0, "last_updated": "2026-06-12T14:14:32.686762+00:00", "maneuver_count": 0, "owner": "N/A"}, "644": {"norad_id": "37180", "name": "SHIJIAN 6 04B (SJ-6 04B)", "tle1": "1 37180U 10051B   26163.28451329  .00000886  00000-0  77591-4 0  9993", "tle2": "2 37180  97.8684 168.6445 0008662 330.1868  29.8860 14.99302235854949", "object_type": "PAYLOAD", "criticality_score": 9.0, "last_updated": "2026-06-12T14:14:32.686762+00:00", "maneuver_count": 0, "owner": "N/A"}, "660": {"norad_id": "36358", "name": "RADUGA 1M-2", "tle1": "1 36358U 10002A   26163.25925269 -.00000221  00000-0  00000-0 0  9992", "tle2": "2 36358   3.6076  78.9174 0005745 265.3025 341.6038  0.98968750 49975", "object_type": "PAYLOAD", "criticality_score": 9.0, "last_updated": "2026-06-12T14:14:32.686762+00:00", "maneuver_count": 0, "owner": "N/A"}}}